INTELSAT 902 (IS-902)   
1 26900U 01039A   26197.47382821 -.00000297  00000+0  00000+0 0  9997
2 26900   6.1880  71.4225 0004205  43.0240 300.3380  1.00272190 90982
INTELSAT 904 (IS-904)   
1 27380U 02007A   26197.09558765 -.00000239  00000+0  00000+0 0  9992
2 27380   6.9902  68.8335 0005387  26.1937 201.8403  1.00270497 52052
DIRECTV 5 (TEMPO 1)     
1 27426U 02023A   26197.60452330 -.00000070  00000+0  00000+0 0  9992
2 27426   4.9511  74.9419 0003143  47.6933 279.3107  1.00271525 88413
INTELSAT 905 (IS-905)   
1 27438U 02027A   26197.74171178  .00000080  00000+0  00000+0 0  9992
2 27438   6.8257  69.4400 0003478  48.1392 306.7924  1.00271751 51658
GALAXY 3C (G-3C)        
1 27445U 02030A   26197.82145247 -.00000165  00000+0  00000+0 0  9996
2 27445   3.8086  77.5916 0001608  32.3649  25.5755  1.00270788 46794
INTELSAT 906 (IS-906)   
1 27513U 02041A   26197.78161382 -.00000001  00000+0  00000+0 0  9996
2 27513   5.8748  72.5542 0003760  26.9486 180.6472  1.00273474 87324
GALAXY 13 (HORIZONS-1)  
1 27954U 03044A   26197.73919845  .00000121  00000+0  00000+0 0  9991
2 27954   1.4929  83.4835 0002124  32.7857 294.3917  1.00271975 46867
INTELSAT 10-02          
1 28358U 04022A   26197.82892022 -.00000021  00000+0  00000+0 0  9994
2 28358   0.0550 253.5568 0000370 344.7769 353.7286  1.00272356 80853
DIRECTV 8               
1 28659U 05019A   26197.74517847  .00000000  00000+0  00000+0 0  9991
2 28659   0.0210  62.9988 0003042  58.9650 321.8277  1.00270403 77369
GALAXY 28 (G-28)        
1 28702U 05022A   26197.83486403 -.00000212  00000+0  00000+0 0  9993
2 28702   3.3722  78.5664 0002512  29.9439  99.6054  1.00271634 52273
GALAXY 16 (G-16)        
1 29236U 06023A   26197.85398552 -.00000137  00000+0  00000+0 0  9993
2 29236   0.0249 155.2480 0002553 318.1279  29.7255  1.00271537 73275
DIRECTV 9S              
1 29494U 06043A   26197.82015247 -.00000125  00000+0  00000+0 0  9992
2 29494   2.4954  80.5453 0004962  31.8266  16.3258  1.00271391 51685
GALAXY 17 (G-17)        
1 31307U 07016B   26197.82335913 -.00000218  00000+0  00000+0 0  9997
2 31307   3.0446  79.5257 0003610  35.1909  31.3175  1.00271492 70109
INTELSAT 11 (IS-11)     
1 32253U 07044B   26197.83928404 -.00000201  00000+0  00000+0 0  9995
2 32253   3.6408  78.3092 0004268 100.1846  53.6942  0.99052640 68746
HORIZONS-2              
1 32388U 07063B   26197.82561249 -.00000265  00000+0  00000+0 0  9994
2 32388   2.6766  80.2603 0003545  16.6797  61.1138  1.00273133 68111
DIRECTV 11              
1 32729U 08013A   26197.84028122 -.00000136  00000+0  00000+0 0  9996
2 32729   0.0072 267.6426 0000145 337.1313 253.2033  1.00271122 45898
GALAXY 18 (G-18)        
1 32951U 08024A   26197.60200997  .00000015  00000+0  00000+0 0  9996
2 32951   0.0137  74.1550 0002825  40.3684 273.6113  1.00270713 46146
GALAXY 19 (G-19)        
1 33376U 08045A   26197.82101912 -.00000149  00000+0  00000+0 0  9991
2 33376   0.0523 244.4441 0002393 241.0410   7.7292  1.00270935 65203
FM-5                    
1 35493U 09034A   26197.82301248 -.00000210  00000+0  00000+0 0  9995
2 35493   0.0370 243.7641 0000713 111.2500 149.7458  1.00271164 46947
INTELSAT 14 (IS-14)     
1 36097U 09064A   26197.83128950 -.00000284  00000+0  00000+0 0  9998
2 36097   0.0166 357.5549 0002297 120.3899  70.9634  1.00272754 60902
INTELSAT 15 (IS-15)     
1 36106U 09067A   26197.76086564 -.00000196  00000+0  00000+0 0  9990
2 36106   0.0175  10.0415 0002127 105.1666 178.4254  1.00272466 41520
DIRECTV 12              
1 36131U 09075A   26197.60599666 -.00000114  00000+0  00000+0 0  9992
2 36131   0.0418 209.1378 0000293   3.4441 197.2818  1.00272634 46842
INTELSAT 16 (IS-16)     
1 36397U 10006A   26197.82509249 -.00000255  00000+0  00000+0 0  9990
2 36397   0.0141  55.5310 0002296  80.3932  19.5451  1.00272180 59953
XM-5                    
1 37185U 10053A   26197.60356998 -.00000033  00000+0  00000+0 0  9999
2 37185   0.0613 264.2736 0001442 329.0003 163.2348  1.00269656 57772
INTELSAT 17 (IS-17)     
1 37238U 10065B   26197.77941676 -.00000012  00000+0  00000+0 0  9999
2 37238   0.0060 106.8614 0002573  21.7839 152.5366  1.00271030 53543
INTELSAT 28 (IS-28)     
1 37392U 11016A   26197.84559152 -.00000236  00000+0  00000+0 0  9997
2 37392   1.8811  82.2607 0003742  40.7092  84.4035  1.00272027 53584
INTELSAT 18 (IS-18)     
1 37834U 11056A   26197.80455237  .00000042  00000+0  00000+0 0  9991
2 37834   0.0410 253.9554 0001755 235.8814 274.4216  1.00271669 54102
INTELSAT 22 (IS-22)     
1 38098U 12011A   26197.85447169 -.00000069  00000+0  00000+0 0  9996
2 38098   0.0164  50.7483 0001846  75.2376 188.4007  1.00271898  7480
INTELSAT 19 (IS-19)     
1 38356U 12030A   26197.80177904 -.00000067  00000+0  00000+0 0  9994
2 38356   0.0193  38.5585 0002853  77.1255 273.5675  1.00271661 50744
INTELSAT 20 (IS-20)     
1 38740U 12043A   26197.85377833 -.00000035  00000+0  00000+0 0  9998
2 38740   0.0117  66.6448 0001498 113.7541 130.1442  1.00271634 51040
INTELSAT 21 (IS-21)     
1 38749U 12045A   26197.82868949 -.00000295  00000+0  00000+0 0  9997
2 38749   0.0490 247.5954 0001593 239.2655  48.1210  1.00272487 50824
